NORAD_CAT_ID,OBJECT_NAME,OBJECT_TYPE,EPOCH,MEAN_MOTION,ECCENTRICITY,INCLINATION,RA_OF_ASC_NODE,ARG_OF_PERICENTER,MEAN_ANOMALY,BSTAR,MEAN_MOTION_DOT,MEAN_MOTION_DDOT,TLE_LINE0,TLE_LINE1,TLE_LINE2,SEMIMAJOR_AXIS,PERIOD,APOGEE,PERIGEE,DECAYED
52353.0,STARLINK-3807,PAYLOAD,2022-11-05 02:04:58,15.08834736,0.0002463,53.2186,278.6335,36.7199,323.3962,3.4842e-05,2.66e-06,0.0,0 STARLINK-3807,1 52353U 22045Y   22309.08679056  .00000266  00000-0  34842-4 0  9997,2 52353  53.2186 278.6335 0002463  36.7199 323.3962 15.08834736 31512,6917.896,95.438,541.465,538.058,0.0
52353.0,STARLINK-3807,PAYLOAD,2022-11-05 06:51:08,15.08834062,0.0002414,53.2178,277.7406,36.8149,323.3009,2.3025e-05,7.8e-07,0.0,0 STARLINK-3807,1 52353U 22045Y   22309.28551134  .00000078  00000-0  23025-4 0  9997,2 52353  53.2178 277.7406 0002414  36.8149 323.3009 15.08834062 31541,6917.899,95.438,541.434,538.094,0.0
52353.0,STARLINK-3807,PAYLOAD,2022-11-06 03:31:10,15.08823881,0.0002923,53.2172,273.8724,33.629,326.4888,-0.00020946,-3.619e-05,0.0,0 STARLINK-3807,1 52353U 22045Y   22310.14665357 -.00003619  00000-0 -20946-3 0  9991,2 52353  53.2172 273.8724 0002923  33.6290 326.4888 15.08823881 31672,6917.93,95.439,541.817,537.773,0.0
52353.0,STARLINK-3807,PAYLOAD,2022-11-06 08:17:19,15.08839999,0.0002705,53.2162,272.9798,30.2485,329.8663,-7.0979e-05,-1.418e-05,0.0,0 STARLINK-3807,1 52353U 22045Y   22310.34536024 -.00001418  00000-0 -70979-4 0  9998,2 52353  53.2162 272.9798 0002705  30.2485 329.8663 15.08839999 31708,6917.88,95.438,541.617,537.874,0.0
52353.0,STARLINK-3807,PAYLOAD,2022-11-07 20:51:11,15.08838595,0.0002711,53.2186,266.1368,30.9713,329.1439,9.5734e-05,1.235e-05,0.0,0 STARLINK-3807,1 52353U 22045Y   22311.86888672  .00001235  00000-0  95734-4 0  9996,2 52353  53.2186 266.1368 0002711  30.9713 329.1439 15.08838595 31930,6917.885,95.438,541.625,537.874,0.0
52353.0,STARLINK-3807,PAYLOAD,2022-11-08 06:23:29,15.08855209,0.0002674,53.2166,264.3565,29.3022,330.8119999999999,0.00019582,2.831e-05,0.0,0 STARLINK-3807,1 52353U 22045Y   22312.26630925  .00002831  00000-0  19582-3 0  9996,2 52353  53.2166 264.3565 0002674  29.3022 330.8120 15.08855209 31993,6917.834,95.437,541.549,537.849,0.0
52353.0,STARLINK-3807,PAYLOAD,2022-11-08 14:20:24,15.08862561,0.0002716,53.2166,262.8697,29.2541,330.8603,0.00022947,3.368e-05,0.0,0 STARLINK-3807,1 52353U 22045Y   22312.59750084  .00003368  00000-0  22947-3 0  9996,2 52353  53.2166 262.8697 0002716  29.2541 330.8603 15.08862561 32046,6917.811,95.436,541.555,537.798,0.0
52353.0,STARLINK-3807,PAYLOAD,2022-11-09 14:11:12,15.0884112,0.0002992,53.2174,258.4091,33.636,326.4822,-1.2457e-05,-4.87e-06,0.0,0 STARLINK-3807,1 52353U 22045Y   22313.59111337 -.00000487  00000-0 -12457-4 0  9996,2 52353  53.2174 258.4091 0002992  33.6360 326.4822 15.08841120 32196,6917.877,95.437,541.812,537.672,0.0
52353.0,STARLINK-3807,PAYLOAD,2022-11-09 20:32:45,15.08841406,0.0002673,53.2167,257.2194,40.4078,319.7112,-0.00016233,-2.871e-05,0.0,0 STARLINK-3807,1 52353U 22045Y   22313.85607679 -.00002871  00000-0 -16233-3 0  9998,2 52353  53.2167 257.2194 0002673  40.4078 319.7112 15.08841406 32236,6917.876,95.437,541.59,537.8919999999998,0.0
52353.0,STARLINK-3807,PAYLOAD,2022-11-10 02:54:18,15.08829628,0.0002473,53.217,256.0308,26.8834,333.2286,-0.00022003,-3.788e-05,0.0,0 STARLINK-3807,1 52353U 22045Y   22314.12104515 -.00003788  00000-0 -22003-3 0  9990,2 52353  53.2170 256.0308 0002473  26.8834 333.2286 15.08829628 32279,6917.9119999999975,95.438,541.488,538.066,0.0
52353.0,STARLINK-3807,PAYLOAD,2022-11-10 06:05:04,15.08831481,0.0002538,53.2173,255.4361,26.1469,333.9651,-0.0002486,-4.242e-05,0.0,0 STARLINK-3807,1 52353U 22045Y   22314.25352524 -.00004242  00000-0 -24860-3 0  9998,2 52353  53.2173 255.4361 0002538  26.1469 333.9651 15.08831481 32298,6917.906,95.438,541.5269999999998,538.016,0.0
52353.0,STARLINK-3807,PAYLOAD,2022-11-11 04:20:29,15.0882465,0.0002514,53.2159,251.2701,28.932,331.1811,-0.00020475,-3.544e-05,0.0,0 STARLINK-3807,1 52353U 22045Y   22315.18089455 -.00003544  00000-0 -20475-3 0  9993,2 52353  53.2159 251.2701 0002514  28.9320 331.1811 15.08824650 32438,6917.927,95.439,541.531,538.053,0.0
52353.0,STARLINK-3807,PAYLOAD,2022-11-11 12:17:25,15.08823105,0.0002532,53.216,249.7833,29.3108,330.8025,-0.0001904,-3.316e-05,0.0,0 STARLINK-3807,1 52353U 22045Y   22315.51209898 -.00003316  00000-0 -19040-3 0  9998,2 52353  53.2160 249.7833 0002532  29.3108 330.8025 15.08823105 32489,6917.932,95.439,541.549,538.045,0.0
52353.0,STARLINK-3807,PAYLOAD,2022-11-12 04:11:15,15.08834018,0.0002647,53.2169,246.8104,25.2127,334.8994,0.00027583,4.104e-05,0.0,0 STARLINK-3807,1 52353U 22045Y   22316.17448667  .00004104  00000-0  27583-3 0  9995,2 52353  53.2169 246.8104 0002647  25.2127 334.8994 15.08834018 32585,6917.899,95.438,541.595,537.933,0.0
52353.0,STARLINK-3807,PAYLOAD,2022-11-12 12:08:11,15.08837319,0.0002678,53.2169,245.3235,25.724,334.3885,0.0002801,4.172e-05,0.0,0 STARLINK-3807,1 52353U 22045Y   22316.50568693  .00004172  00000-0  28010-3 0  9995,2 52353  53.2169 245.3235 0002678  25.7240 334.3885 15.08837319 32636,6917.889,95.438,541.606,537.901,0.0
52353.0,STARLINK-3807,PAYLOAD,2022-11-13 04:02:03,15.08832239,0.0002833999999999,53.2167,242.3501,26.4444,333.6692,0.00020302,2.944e-05,0.0,0 STARLINK-3807,1 52353U 22045Y   22317.16809496  .00002944  00000-0  20302-3 0  9998,2 52353  53.2167 242.3501 0002834  26.4444 333.6692 15.08832239 32730,6917.904,95.438,541.73,537.809,0.0
52353.0,STARLINK-3807,PAYLOAD,2022-11-13 18:20:32,15.08836007,0.0002788999999999,53.2176,239.6773,30.7501,329.3654,-9.2657e-05,-1.763e-05,0.0,0 STARLINK-3807,1 52353U 22045Y   22317.76426487 -.00001763  00000-0 -92657-4 0  9992,2 52353  53.2176 239.6773 0002789  30.7501 329.3654 15.08836007 32828,6917.893,95.438,541.687,537.828,0.0
52353.0,STARLINK-3807,PAYLOAD,2022-11-14 05:28:14,15.08834228,0.0002756,53.2168,237.5925,29.5202,330.5945,-0.00010289,-1.926e-05,0.0,0 STARLINK-3807,1 52353U 22045Y   22318.22794794 -.00001926  00000-0 -10289-3 0  9994,2 52353  53.2168 237.5925 0002756  29.5202 330.5945 15.08834228 32890,6917.898,95.438,541.67,537.856,0.0
52353.0,STARLINK-3807,PAYLOAD,2022-11-14 11:49:46,15.08840967,0.0002711,53.2169,236.4037,30.2821,329.8328,-5.1416e-05,-1.107e-05,0.0,0 STARLINK-3807,1 52353U 22045Y   22318.49290218 -.00001107  00000-0 -51416-4 0  9994,2 52353  53.2169 236.4037 0002711  30.2821 329.8328 15.08840967 32938,6917.877,95.437,541.618,537.867,0.0
52353.0,STARLINK-3807,PAYLOAD,2022-11-14 22:57:28,15.08846287,0.0002693,53.2166,234.3217,28.2291,331.8846,5.8836e-05,6.48e-06,0.0,0 STARLINK-3807,1 52353U 22045Y   22318.95657489  .00000648  00000-0  58836-4 0  9992,2 52353  53.2166 234.3217 0002693  28.2291 331.8846 15.08846287 33007,6917.861,95.437,541.589,537.863,0.0
52353.0,STARLINK-3807,PAYLOAD,2022-11-15 11:40:33,15.08843563,0.0002681,53.2169,231.9429,34.9035,325.2132,0.00021878,3.196e-05,0.0,0 STARLINK-3807,1 52353U 22045Y   22319.48649415  .00003196  00000-0  21878-3 0  9997,2 52353  53.2169 231.9429 0002681  34.9035 325.2132 15.08843563 33082,6917.869000000002,95.437,541.589,537.88,0.0
52353.0,STARLINK-3807,PAYLOAD,2022-11-15 18:02:05,15.08844221,0.0002784,53.2163,230.7526,33.6948,326.4221,0.00024365,3.592e-05,0.0,0 STARLINK-3807,1 52353U 22045Y   22319.75145333  .00003592  00000-0  24365-3 0  9991,2 52353  53.2163 230.7526 0002784  33.6948 326.4221 15.08844221 33123,6917.8669999999975,95.437,541.658,537.807,0.0
52353.0,STARLINK-3807,PAYLOAD,2022-11-16 03:34:24,15.0884124,0.0002711,53.2171,228.9695,32.1689,327.9468,0.00021208,3.089e-05,0.0,0 STARLINK-3807,1 52353U 22045Y   22320.14889709  .00003089  00000-0  21208-3 0  9992,2 52353  53.2171 228.9695 0002711  32.1689 327.9468 15.08841240 33187,6917.877,95.437,541.617,537.866,0.0
52353.0,STARLINK-3807,PAYLOAD,2022-11-16 11:31:20,15.08847324,0.0002754,53.216,227.4831,31.932,328.1839,0.00016304,2.308e-05,0.0,0 STARLINK-3807,1 52353U 22045Y   22320.48009369  .00002308  00000-0  16304-3 0  9999,2 52353  53.2160 227.4831 0002754  31.9320 328.1839 15.08847324 33237,6917.858,95.437,541.628,537.818,0.0
52353.0,STARLINK-3807,PAYLOAD,2022-11-17 03:25:11,15.08849856,0.0002749,53.217,224.5091,34.4825,325.6345,3.0882e-05,2.03e-06,0.0,0 STARLINK-3807,1 52353U 22045Y   22321.14249141  .00000203  00000-0  30882-4 0  9997,2 52353  53.2170 224.5091 0002749  34.4825 325.6345 15.08849856 33333,6917.85,95.437,541.617,537.814,0.0
52353.0,STARLINK-3807,PAYLOAD,2022-11-18 03:15:57,15.08856294,0.0002777,53.216,220.0491,31.8772,328.2387,-0.00011086,-2.053e-05,0.0,0 STARLINK-3807,1 52353U 22045Y   22322.13608346 -.00002053  00000-0 -11086-3 0  9994,2 52353  53.2160 220.0491 0002777  31.8772 328.2387 15.08856294 33485,6917.831,95.437,541.617,537.775,0.0
52353.0,STARLINK-3807,PAYLOAD,2022-11-19 03:06:45,15.08832532,0.0002674,53.2155,215.5887,30.3988,329.7158,-1.356e-05,-5.04e-06,0.0,0 STARLINK-3807,1 52353U 22045Y   22323.12969659 -.00000504  00000-0 -13560-4 0  9990,2 52353  53.2155 215.5887 0002674  30.3988 329.7158 15.08832532 33634,6917.903,95.438,541.618,537.918,0.0
52353.0,STARLINK-3807,PAYLOAD,2022-11-19 09:28:18,15.08833191,0.0002738,53.2159,214.3986,30.6706,329.4446,-4.2888e-05,-9.71e-06,0.0,0 STARLINK-3807,1 52353U 22045Y   22323.39465774 -.00000971  00000-0 -42888-4 0  9991,2 52353  53.2159 214.3986 0002738  30.6706 329.4446 15.08833191 33670,6917.901,95.438,541.66,537.872,0.0
52353.0,STARLINK-3807,PAYLOAD,2022-11-19 15:49:50,15.08834786,0.0002686,53.2153,213.2091,31.5761,328.5392,-3.4851e-06,-3.44e-06,0.0,0 STARLINK-3807,1 52353U 22045Y   22323.65961633 -.00000344  00000-0 -34851-5 0  9991,2 52353  53.2153 213.2091 0002686  31.5761 328.5392 15.08834786 33718,6917.896,95.438,541.619,537.903,0.0
52353.0,STARLINK-3807,PAYLOAD,2022-11-20 02:57:32,15.08840137,0.0002736,53.2154,211.1275,33.3802,326.7362,6.0735e-05,6.78e-06,0.0,0 STARLINK-3807,1 52353U 22045Y   22324.12329173  .00000678  00000-0  60735-4 0  9998,2 52353  53.2154 211.1275 0002736  33.3802 326.7362 15.08840137 33783,6917.88,95.438,541.638,537.852,0.0
